IRIDIUM 39              
1 25042U 97069D   25175.58588992  .00000387  00000+0  96114-4 0  9990
2 25042  86.3925 207.9606 0015519 284.2045  75.7435 14.49226153450034
IRIDIUM 38              
1 25043U 97069E   25175.68346532  .00000254  00000+0  77321-4 0  9996
2 25043  86.3960 230.0019 0004215  84.2266 275.9413 14.38122289447032
IRIDIUM 42              
1 25077U 97077A   25175.69887398  .00000301  00000+0  96145-4 0  9991
2 25077  86.3962 236.1741 0003086  92.5815 267.5735 14.36357201442274
IRIDIUM 44              
1 25078U 97077B   25175.63304777  .00000258  00000+0  75392-4 0  9993
2 25078  86.3967 218.1098 0003067  53.7481 306.4001 14.40246624444779
IRIDIUM 45              
1 25104U 97082A   25175.22019426  .00007438  00000+0  26552-3 0  9998
2 25104  86.3581  44.4788 0113998 306.1274  52.9459 15.22599474453110
IRIDIUM 24              
1 25105U 97082B   25175.73538366  .00000363  00000+0  10412-3 0  9992
2 25105  86.3898  77.0999 0013369  58.3722 301.8781 14.42104888444300
IRIDIUM 51              
1 25262U 98018A   25175.76379910  .00018498  00000+0  40628-3 0  9997
2 25262  86.3833  52.0814 0083913 219.6105 139.9001 15.40123303448199
IRIDIUM 57              
1 25273U 98019B   25175.90723587  .00000221  00000+0  69546-4 0  9995
2 25273  86.3977 142.0283 0002355  86.4153 273.7313 14.35897304425891
